CZ-4B R/B               
1 29507U 06046C   26155.13291546  .00005234  00000+0  25994-3 0  9994
2 29507  97.5456 199.7807 0031690 330.1583  29.7842 15.17683201 73156
CZ-2C R/B               
1 31114U 07010B   26154.32245812  .00000119  00000+0  73246-4 0  9999
2 31114  98.4088 263.3526 0059778  46.1443 314.4652 14.20272773991878
COSMO-SKYMED 1          
1 31598U 07023A   26155.83674130  .00002613  00000+0  23199-3 0  9997
2 31598  97.8862 347.5897 0001501  81.3870 278.7521 14.97046420 27946
COSMOS 2428             
1 31792U 07029A   26155.68360744 -.00000183  00000+0 -72666-4 0  9991
2 31792  70.9380  20.7314 0007338 158.9889 201.1535 14.12931154976388
SL-16 R/B               
1 31793U 07029B   26154.60507443  .00000160  00000+0  10774-3 0  9996
2 31793  70.9758 351.7816 0002314 257.9016 159.5807 14.14847422977524
KORONAS-FOTON           
1 33504U 09003A   26155.71272421  .00011452  00000+0  23794-3 0  9992
2 33504  82.4288 185.2698 0010290 190.0454 170.0591 15.45455667959175
CZ-2C R/B               
1 37731U 11030B   26155.21438880  .00001565  00000+0  20182-3 0  9991
2 37731  97.8650 110.8357 0053796  69.2961  26.3935 14.81438717802907
H-2A R/B                
1 38341U 12025E   26154.97771839  .00002976  00000+0  26873-3 0  9990
2 38341  98.4819 129.0360 0044713  31.6803 328.7092 14.95639537761110
SHIJIAN-16 (SJ-16)      
1 39358U 13057A   26155.83927245  .00001421  00000+0  14062-3 0  9996
2 39358  74.9731  20.0713 0016957 259.1364 100.7916 14.92582400684504
SL-4 R/B                
1 39679U 14021B   26154.64686584  .00012294  00000+0  25569-3 0  9994
2 39679  51.6063 277.0919 0091705  56.7885 304.1851 15.41642817669522
ALOS-2                  
1 39766U 14029A   26155.55943948  .00001755  00000+0  24177-3 0  9994
2 39766  97.9217 252.9044 0001603  94.8920 265.2475 14.79487434649715
YAOGAN-29               
1 41038U 15069A   26155.83111321  .00000437  00000+0  60316-4 0  9999
2 41038  98.0027 184.4440 0002963  74.2290 285.9250 14.83073745568791
ASTRO-H (HITOMI)        
1 41337U 16012A   26153.29804336  .00002399  00000+0  13655-3 0  9995
2 41337  30.9972 170.3433 0009474 103.6260 256.5434 15.10444105565036
HXMT (HUIYAN)           
1 42758U 17034A   26155.76760025  .00005458  00000+0  26918-3 0  9993
2 42758  43.0139 252.1936 0030238  65.0432 295.3553 15.18378778495771
SAOCOM 1A               
1 43641U 18076A   26155.84913243 -.00000048  00000+0  53022-6 0  9993
2 43641  97.8880 342.7768 0001520  75.9554 284.1828 14.82163790414272
H-2A R/B                
1 43682U 18084L   26155.23912074  .00020027  00000+0  42717-3 0  9995
2 43682  98.8590  31.3044 0024562  83.7841 276.6200 15.44635255419129
SAOCOM 1B               
1 46265U 20059A   26155.81288530  .00000677  00000+0  91558-4 0  9994
2 46265  97.8884 341.8355 0001477  81.3570 278.7810 14.82161538311659
CSS (TIANHE)            
1 48274U 21035A   26155.68961053  .00024475  00000+0  29392-3 0  9992
2 48274  41.4693  38.0294 0009579 342.1781  17.8720 15.60257338291216
COSMOS 2550             
1 48865U 21056A   26154.26489617  .00005924  00000+0  18579-3 0  9998
2 48865  67.1411 142.0174 0008207 269.6582  90.3631 15.33822322276588
CZ-2C R/B               
1 52794U 22058K   26153.71454956  .00040633  00000+0  46803-3 0  9991
2 52794  50.1851 238.7695 0033406 206.7998 153.1250 15.60823058223389
CZ-2C R/B               
1 54039U 22132E   26155.09265172  .00056126  00000+0  46322-3 0  9991
2 54039  97.2904 161.5470 0017147 124.5379 235.7505 15.69970737203892
GSLV R/B                
1 54149U 22138AN  26155.01801760  .00002993  00000+0  25540-3 0  9992
2 54149  87.3794 137.4067 0020647 190.2739 169.8074 14.97194298196848
XRISM                   
1 57800U 23137A   26153.27519307  .00005615  00000+0  31044-3 0  9998
2 57800  31.0020  96.1840 0007694 175.1081 184.9634 15.12327778150605
ACS3                    
1 59588U 24077B   26154.63772334  .00041379  00000+0  31291-1 0  9998
2 59588  97.1690  76.4520 0041316  63.8137 296.7269 13.93351359106152
SZ-21 MODULE            
1 66515U 25246C   26152.94156862  .00047427  00000+0  30885-3 0  9999
2 66515  41.4749  42.1841 0007101 261.1371  98.8669 15.75039202 31334
